ONEWEB-0126             
1 47272U 20100Q   24073.47530236 -.00000268  00000+0 -78154-3 0  9996
2 47272  87.9023 154.9886 0001874 110.1158 250.0172 13.12443599156393
ONEWEB-0127             
1 47273U 20100R   24073.51263999  .00000408  00000+0  10991-2 0  9999
2 47273  87.9028 155.0068 0001897 107.8591 252.2744 13.12443942156427
ONEWEB-0128             
1 47274U 20100S   24073.45864248  .00000212  00000+0  55479-3 0  9991
2 47274  87.9038 155.0151 0001637  99.6992 260.4322 13.12441281156435
ONEWEB-0129             
1 47275U 20100T   24073.51422871  .00000457  00000+0  12342-2 0  9993
2 47275  87.9027 154.9770 0002207 150.6516 209.4736 13.12442959156371
ONEWEB-0130             
1 47276U 20100U   24073.46658149 -.00000049  00000+0 -17141-3 0  9999
2 47276  87.9028 154.9959 0001776 105.7287 254.4038 13.12441189156333
ONEWEB-0131             
1 47277U 20100V   24073.46339631  .00000020  00000+0  19113-4 0  9991
2 47277  87.9031 155.0086 0001845 102.2426 257.8909 13.12439512156370
ONEWEB-0132             
1 47278U 20100W   24073.49198472 -.00000230  00000+0 -67367-3 0  9999
2 47278  87.9031 155.0049 0002084  97.8767 262.2598 13.12443697156275
ONEWEB-0133             
1 47279U 20100X   24073.50788429  .00000250  00000+0  65927-3 0  9999
2 47279  87.9024 155.0057 0001902 100.0712 260.0631 13.12445525156436
